STARLINK-5661           
1 55343U 23013N   25354.41561191  .00006694  00000+0  51066-3 0  9991
2 55343  43.0026  11.1622 0000466 324.8687  35.2124 15.02496202159782
STARLINK-5653           
1 55345U 23013Q   25354.08346311 -.00000214  00000+0 -79631-6 0  9996
2 55345  43.0046 359.9465 0001154 268.0298  92.0412 15.02533610159883
STARLINK-5631           
1 55346U 23013R   25354.41338205 -.00000892  00000+0 -50940-4 0  9999
2 55346  43.0028  11.1475 0001119 269.0360  91.0354 15.02532192159781
STARLINK-5663           
1 55347U 23013S   25354.13526080 -.00000229  00000+0 -18671-5 0  9999
2 55347  43.0061  12.4970 0001133 267.8052  92.2661 15.02532397159740
STARLINK-5609           
1 55348U 23013T   25353.14696767  .00000191  00000+0  29206-4 0  9991
2 55348  43.0053  17.9840 0001099 274.2217  85.8500 15.02536483159597
STARLINK-5666           
1 55349U 23013U   25354.40671638 -.00000080  00000+0  91411-5 0  9998
2 55349  43.0057  11.0941 0001304 267.9910  92.0783 15.02536924159781
STARLINK-5668           
1 55350U 23013V   25354.46986663  .00000136  00000+0  25158-4 0  9998
2 55350  43.0062  10.7100 0001581 279.7782  80.2882 15.02535765159799
STARLINK-5659           
1 55351U 23013W   25354.12637732  .00000009  00000+0  15740-4 0  9997
2 55351  43.0039  12.4261 0000932 254.9817 105.0923 15.02536976159746
STARLINK-5547           
1 55352U 23013X   25354.13192932  .00000431  00000+0  46988-4 0  9994
2 55352  43.0035  12.4710 0001048 267.0470  93.0253 15.02534109159749
STARLINK-5608           
1 55353U 23013Y   25354.11194682  .00000238  00000+0  32729-4 0  9990
2 55353  43.0050  12.3193 0001497 269.9762  90.0909 15.02535267159745
STARLINK-5649           
1 55354U 23013Z   25354.39561780  .00001151  00000+0  10031-3 0  9994
2 55354  43.0058  11.0123 0001358 266.6875  93.3812 15.02528912159780
STARLINK-5647           
1 55355U 23013AA  25354.45210399  .00000051  00000+0  18859-4 0  9994
2 55355  43.0055  10.5611 0001310 265.1976  94.8717 15.02535129159786
STARLINK-5651           
1 55357U 23013AC  25354.45321684 -.00000193  00000+0  77705-6 0  9991
2 55357  43.0060  10.5807 0001289 269.4728  90.5966 15.02537329159792
STARLINK-5622           
1 55358U 23013AD  25354.32248161 -.00000120  00000+0  62075-5 0  9999
2 55358  43.0053  11.3208 0001321 263.9939  96.0753 15.02535974159776
STARLINK-5641           
1 55359U 23013AE  25354.44987509  .00000576  00000+0  57708-4 0  9999
2 55359  43.0065  10.5574 0001823 270.3814  89.6819 15.02543662159794
STARLINK-5664           
1 55360U 23013AF  25354.49945411  .00000637  00000+0  62242-4 0  9999
2 55360  43.0054  23.0594 0001330 272.7569  87.3121 15.02538789159651
STARLINK-5665           
1 55361U 23013AG  25354.39480149 -.00002699  00000+0 -18492-3 0  9990
2 55361  43.0019 357.9978 0000331  69.6753 290.4125 15.02510790159930
STARLINK-5574           
1 55362U 23013AH  25353.40869898 -.00000139  00000+0  48155-5 0  9991
2 55362  43.0047   3.4973 0001241 271.7406  88.3294 15.02536590159782
STARLINK-5627           
1 55364U 23013AK  25354.44763801  .00003432  00000+0  26881-3 0  9993
2 55364  43.0057  10.5375 0001305 268.4567  91.6126 15.02564842159795
STARLINK-5639           
1 55365U 23013AL  25354.47293632  .00000481  00000+0  50676-4 0  9998
2 55365  43.0046  23.7198 0001093 259.2447 100.8272 15.02534844159640
STARLINK-5654           
1 55366U 23013AM  25354.34271436  .00000717  00000+0  68154-4 0  9995
2 55366  43.0061 358.4620 0001218 272.6700  87.4003 15.02536836159922
STARLINK-5635           
1 55367U 23013AN  25354.29288877  .00001184  00000+0  10268-3 0  9998
2 55367  43.0040 358.9436 0001164 271.3259  88.7450 15.02535566159913
STARLINK-5625           
1 55368U 23013AP  25353.99700677  .00001234  00000+0  10637-3 0  9998
2 55368  43.0063   0.1740 0001385 275.0413  85.0271 15.02540374159870
STARLINK-5644           
1 55369U 23013AQ  25354.47182721 -.00000282  00000+0 -57691-5 0  9994
2 55369  43.0052  23.7131 0001420 268.0956  91.9724 15.02534602159649
STARLINK-5027           
1 55370U 23013AR  25354.01091969  .00000452  00000+0  48514-4 0  9999
2 55370  43.0062  26.2791 0001251 264.5265  95.5435 15.02535870159577
STARLINK-5590           
1 55371U 23013AS  25354.12944743 -.00000164  00000+0  29624-5 0  9992
2 55371  43.0042  25.4376 0001135 266.7501  93.3212 15.02533606160514
STARLINK-5568           
1 55372U 23013AT  25354.13610743  .00000366  00000+0  42161-4 0  9997
2 55372  43.0045  25.4938 0001256 274.6783  85.3916 15.02537805159599
STARLINK-5581           
1 55373U 23013AU  25354.48958323  .00000299  00000+0  37218-4 0  9997
2 55373  43.0048  23.8392 0001246 271.0903  88.9796 15.02536877159642
STARLINK-5578           
1 55374U 23013AV  25354.39868736  .00000512  00000+0  53004-4 0  9995
2 55374  43.0040  24.0247 0001164 269.5320  90.5389 15.02537442159636
STARLINK-5588           
1 55375U 23013AW  25354.45517573 -.00000009  00000+0  14411-4 0  9994
2 55375  43.0043  23.5880 0001154 260.5206  99.5506 15.02536857159640
STARLINK-5586           
1 55376U 23013AX  25354.42917462 -.00000003  00000+0  14888-4 0  9995
2 55376  43.0055 358.2439 0001211 273.7251  86.3453 15.02533594159934
STARLINK-5567           
1 55377U 23013AY  25354.37538145 -.00001767  00000+0 -11578-3 0  9998
2 55377  43.0097  23.8525 0001241 263.7330  96.3371 15.02526486159631
STARLINK-5572           
1 55378U 23013AZ  25354.12612212  .00000609  00000+0  60151-4 0  9994
2 55378  43.0057  25.4204 0001501 269.9933  90.0737 15.02546678159593
STARLINK-5569           
1 55379U 23013BA  25354.44851874 -.00000015  00000+0  13996-4 0  9996
2 55379  43.0065  23.5382 0001518 273.1847  86.8822 15.02534673159644
STARLINK-5571           
1 55380U 23013BB  25353.46185394 -.00000136  00000+0  49985-5 0  9998
2 55380  43.0049   3.0356 0001003 245.1499 114.9239 15.02533933159792
STARLINK-5575           
1 55381U 23013BC  25354.44517472 -.00015472  00000+0 -11309-2 0  9990
2 55381  43.0053  23.5104 0001535 260.3678  99.6991 15.02596997159641
STARLINK-5576           
1 55382U 23013BD  25354.45184860 -.00000211  00000+0 -57226-6 0  9990
2 55382  43.0049  23.5629 0001343 262.8697  97.1993 15.02533199159644
STARLINK-5531           
1 55383U 23013BE  25354.38921708  .00002483  00000+0  19884-3 0  9999
2 55383  43.0054 357.9511 0001294 267.0694  93.0001 15.02528020159938
STARLINK-5537           
1 55384U 23013BF  25354.44963858 -.00002362  00000+0 -15989-3 0  9999
2 55384  43.0050  23.5475 0001334 269.8512  90.2177 15.02527025159649
STARLINK-5556           
1 55385U 23013BG  25354.16928697 -.00000541  00000+0 -24993-4 0  9994
2 55385  43.0019  24.8784 0001040 241.8204 118.2533 15.02534086159602
STARLINK-5555           
1 55386U 23013BH  25354.43853088 -.00000162  00000+0  30466-5 0  9997
2 55386  43.0046  23.4624 0001222 265.8155  94.2548 15.02535497159644
STARLINK-5085           
1 55392U 23014B   25353.99339581  .00000166  00000+0  21701-4 0  9996
2 55392  69.9976 245.2853 0002644 270.3775  89.7081 14.98333901160616
STARLINK-4786           
1 55393U 23014C   25354.48180931 -.00001112  00000+0 -85424-4 0  9991
2 55393  70.0002 264.0642 0002459 272.3078  87.7800 14.98332677160196
STARLINK-5274           
1 55395U 23014E   25354.13965716 -.00000636  00000+0 -45502-4 0  9990
2 55395  69.9988 264.8557 0002832 270.2782  89.8053 14.98332696160144
STARLINK-5283           
1 55396U 23014F   25354.47763213 -.00000096  00000+0 -23229-6 0  9990
2 55396  69.9989 264.0390 0002746 277.0145  83.0702 14.98332462160198
STARLINK-5224           
1 55397U 23014G   25354.10608197  .00000338  00000+0  36120-4 0  9999
2 55397  69.9983 245.2650 0002615 273.9812  86.1048 14.98326423160629
STARLINK-5275           
1 55398U 23014H   25354.49433007 -.00000030  00000+0  52374-5 0  9998
2 55398  69.9989 264.0957 0002665 254.9965 105.0899 14.98332694160192
STARLINK-5276           
1 55399U 23014J   25354.48599949 -.00001818  00000+0 -14471-3 0  9996
2 55399  70.0005 264.0670 0002385 279.4384  80.6506 14.98312401160190
STARLINK-5632           
1 55400U 23014K   25354.10211863  .00001918  00000+0  16850-3 0  9996
2 55400  69.9984 265.1294 0002913 270.6146  89.4679 14.98327455160133
STARLINK-5076           
1 55401U 23014L   25354.15635325 -.00002071  00000+0 -16578-3 0  9995
2 55401  69.9992 264.9233 0003089 272.0035  88.0771 14.98334013160148
STARLINK-5071           
1 55402U 23014M   25354.17722875  .00000331  00000+0  35514-4 0  9992
2 55402  69.9986 264.9957 0002816 267.2034  92.8803 14.98325774160140
STARLINK-5597           
1 55403U 23014N   25354.16470309  .00000520  00000+0  51396-4 0  9990
2 55403  69.9984 264.9519 0002944 269.4676  90.6145 14.98330404160142
STARLINK-5607           
1 55404U 23014P   25354.18557558  .00001361  00000+0  12187-3 0  9993
2 55404  69.9986 265.0240 0002298 254.2911 105.7995 14.98326164160143
STARLINK-5623           
1 55405U 23014Q   25354.17305347  .00003124  00000+0  26953-3 0  9995
2 55405  69.9984 264.9822 0002904 266.6453  93.4374 14.98327416160143
STARLINK-5630           
1 55406U 23014R   25354.12298950  .00000825  00000+0  76940-4 0  9999
2 55406  69.9988 265.2082 0002950 270.8326  89.2495 14.98329224160132
STARLINK-5019           
1 55407U 23014S   25354.18141377 -.00001067  00000+0 -81704-4 0  9991
2 55407  69.9985 265.0104 0002820 269.9769  90.1066 14.98317131160149
STARLINK-5092           
1 55408U 23014T   25354.19391181 -.00007656  00000+0 -63398-3 0  9991
2 55408  69.9989 265.0542 0002710 260.2420  99.8433 14.98367147160142
STARLINK-5633           
1 55410U 23014V   25354.22751282  .00000856  00000+0  79532-4 0  9991
2 55410  69.9989 284.6400 0002892 267.3841  92.6987 14.98330134159667
STARLINK-5605           
1 55411U 23014W   25354.46513964 -.00000016  00000+0  64764-5 0  9992
2 55411  69.9994 264.3972 0002477 269.7689  90.3186 14.98329405160182
